QIANFAN-89              
1 63175U 25046S   26020.31602871  .00000256  00000+0  37696-3 0  9993
2 63175  88.9797 316.0519 0017722  19.4404 340.7419 13.50992251 52617
QIANFAN-90              
1 63176U 25046T   26020.19664384  .00000250  00000+0  36894-3 0  9990
2 63176  88.9797 316.0366 0014639  19.3312 340.8392 13.50991744 52616
QIANFAN-91              
1 66033U 25233A   26020.30344521  .00000090  00000+0  12031-3 0  9993
2 66033  88.9916  58.1792 0001924  90.6847 269.4525 13.50990269 13217
QIANFAN-92              
1 66034U 25233B   26020.23753145  .00000083  00000+0  11053-3 0  9997
2 66034  88.9900  58.1819 0013194 285.6675  74.3021 13.50990940 13207
QIANFAN-93              
1 66035U 25233C   26019.87549444  .00000099  00000+0  13541-3 0  9992
2 66035  88.9928  58.2311 0003058 287.9509  72.1308 13.50976989 13150
QIANFAN-94              
1 66036U 25233D   26020.33347941  .00000135  00000+0  16042-3 0  9994
2 66036  88.9926  58.0982 0013633 280.7410  79.2212 13.61617324 13264
QIANFAN-95              
1 66037U 25233E   26019.87951531  .00000092  00000+0  59721-4 0  9992
2 66037  88.9916  57.7976 0011497 285.0288  74.9614 13.93977030 13390
QIANFAN-96              
1 66038U 25233F   26020.26641096  .00000075  00000+0  97691-4 0  9999
2 66038  88.9918  58.1936 0001867  89.2537 270.8828 13.50990704 13205
